start=new Date('2021-09-28T00:00:00.000Z').valueOf();
sats=[{"CENTER_NAME":"EARTH","FILE":"3131463","MEAN_MOTION_DDOT":"0.0000000000000","MEAN_ANOMALY":"256.8638","REV_AT_EPOCH":"250","RCS_SIZE":"LARGE","INCLINATION":"70.0001","ELEMENT_SET_NO":"999","OBJECT_ID":"2021-082X","PERIOD":"91.698","COUNTRY_CODE":"US","TLE_LINE1":"1 49151U 21082X   21270.91668981 -.00780730  00000-0 -69881-2 0  9994","RA_OF_ASC_NODE":"88.0801","OBJECT_TYPE":"PAYLOAD","SITE":"AFWTR","CLASSIFICATION_TYPE":"U","PERIAPSIS":"355.477","APOAPSIS":"360.239","GP_ID":"185669385","SEMIMAJOR_AXIS":"6735.993","EPOCH":"2021-09-27T22:00:01.999584","BSTAR":"-0.00698810000000","TLE_LINE2":"2 49151  70.0001  88.0801 0003535 281.5373 256.8638 15.70363898  2505","MEAN_ELEMENT_THEORY":"SGP4","ARG_OF_PERICENTER":"281.5373","LAUNCH_DATE":"2021-09-14","REF_FRAME":"TEME","NORAD_CAT_ID":"49151","MEAN_MOTION":"15.70363898","MEAN_MOTION_DOT":"-0.00780730","OBJECT_NAME":"STARLINK-3102","DECAY_DATE":null,"ECCENTRICITY":"0.00035350","TIME_SYSTEM":"UTC","EPHEMERIS_TYPE":"0"},{"RCS_SIZE":"LARGE","INCLINATION":"70.0001","OBJECT_ID":"2021-082Y","ELEMENT_SET_NO":"999","PERIOD":"91.682","COUNTRY_CODE":"US","CENTER_NAME":"EARTH","FILE":"3131463","MEAN_MOTION_DDOT":"0.0000000000000","MEAN_ANOMALY":"266.5923","REV_AT_EPOCH":"250","GP_ID":"185669497","TLE_LINE1":"1 49152U 21082Y   21270.91668981 -.01010597  00000-0 -90273-2 0  9992","RA_OF_ASC_NODE":"88.0703","OBJECT_TYPE":"PAYLOAD","SITE":"AFWTR","APOAPSIS":"359.416","CLASSIFICATION_TYPE":"U","PERIAPSIS":"354.731","ARG_OF_PERICENTER":"280.0636","LAUNCH_DATE":"2021-09-14","SEMIMAJOR_AXIS":"6735.209","EPOCH":"2021-09-27T22:00:01.999584","MEAN_ELEMENT_THEORY":"SGP4","TLE_LINE2":"2 49152  70.0001  88.0703 0003478 280.0636 266.5923 15.70638210  2507","BSTAR":"-0.00902730000000","MEAN_MOTION_DOT":"-0.01010597","OBJECT_NAME":"STARLINK-3081","EPHEMERIS_TYPE":"0","DECAY_DATE":null,"ECCENTRICITY":"0.00034780","TIME_SYSTEM":"UTC","NORAD_CAT_ID":"49152","MEAN_MOTION":"15.70638210","REF_FRAME":"TEME"},{"OBJECT_NAME":"STARLINK-3072","DECAY_DATE":null,"ECCENTRICITY":"0.00034970","TIME_SYSTEM":"UTC","EPHEMERIS_TYPE":"0","MEAN_MOTION_DOT":"-0.00903260","REF_FRAME":"TEME","NORAD_CAT_ID":"49153","MEAN_MOTION":"15.70505360","ARG_OF_PERICENTER":"278.8860","LAUNCH_DATE":"2021-09-14","TLE_LINE2":"2 49153  70.0001  88.0752 0003497 278.8860 263.6484 15.70505360  2269","MEAN_ELEMENT_THEORY":"SGP4","BSTAR":"-0.00815750000000","SEMIMAJOR_AXIS":"6735.589","EPOCH":"2021-09-27T22:00:01.999584","GP_ID":"185646072","PERIAPSIS":"355.098","CLASSIFICATION_TYPE":"U","APOAPSIS":"359.809","TLE_LINE1":"1 49153U 21082Z   21270.91668981 -.00903260  00000-0 -81575-2 0  9995","RA_OF_ASC_NODE":"88.0752","OBJECT_TYPE":"PAYLOAD","SITE":"AFWTR","ELEMENT_SET_NO":"999","OBJECT_ID":"2021-082Z","COUNTRY_CODE":"US","PERIOD":"91.690","RCS_SIZE":"MEDIUM","INCLINATION":"70.0001","MEAN_MOTION_DDOT":"0.0000000000000","REV_AT_EPOCH":"226","MEAN_ANOMALY":"263.6484","CENTER_NAME":"EARTH","FILE":"3131420"},{"NORAD_CAT_ID":"49154","MEAN_MOTION":"15.70700614","REF_FRAME":"TEME","OBJECT_NAME":"STARLINK-3068","EPHEMERIS_TYPE":"0","DECAY_DATE":null,"TIME_SYSTEM":"UTC","ECCENTRICITY":"0.00034680","MEAN_MOTION_DOT":"-0.01044734","TLE_LINE2":"2 49154  70.0001  88.0678 0003468 280.7010 268.0107 15.70700614  2501","BSTAR":"-0.00934080000000","MEAN_ELEMENT_THEORY":"SGP4","SEMIMAJOR_AXIS":"6735.030","EPOCH":"2021-09-27T22:00:01.999584","ARG_OF_PERICENTER":"280.7010","LAUNCH_DATE":"2021-09-14","APOAPSIS":"359.231","CLASSIFICATION_TYPE":"U","PERIAPSIS":"354.560","RA_OF_ASC_NODE":"88.0678","TLE_LINE1":"1 49154U 21082AA  21270.91668981 -.01044734  00000-0 -93408-2 0  9997","OBJECT_TYPE":"PAYLOAD","SITE":"AFWTR","GP_ID":"185669821","MEAN_MOTION_DDOT":"0.0000000000000","MEAN_ANOMALY":"268.0107","REV_AT_EPOCH":"250","CENTER_NAME":"EARTH","FILE":"3131463","ELEMENT_SET_NO":"999","OBJECT_ID":"2021-082AA","PERIOD":"91.679","COUNTRY_CODE":"US","RCS_SIZE":"LARGE","INCLINATION":"70.0001"},{"RCS_SIZE":"LARGE","INCLINATION":"70.0001","ELEMENT_SET_NO":"999","OBJECT_ID":"2021-082AB","COUNTRY_CODE":"US","PERIOD":"91.686","CENTER_NAME":"EARTH","FILE":"3131463","MEAN_MOTION_DDOT":"0.0000000000000","MEAN_ANOMALY":"265.0296","REV_AT_EPOCH":"250","GP_ID":"185669711","OBJECT_TYPE":"PAYLOAD","TLE_LINE1":"1 49155U 21082AB  21270.91668981 -.00969410  00000-0 -86456-2 0  9999","RA_OF_ASC_NODE":"88.0727","SITE":"AFWTR","APOAPSIS":"359.602","CLASSIFICATION_TYPE":"U","PERIAPSIS":"354.906","ARG_OF_PERICENTER":"279.5651","LAUNCH_DATE":"2021-09-14","SEMIMAJOR_AXIS":"6735.389","EPOCH":"2021-09-27T22:00:01.999584","MEAN_ELEMENT_THEORY":"SGP4","TLE_LINE2":"2 49155  70.0001  88.0727 0003486 279.5651 265.0296 15.70575068  2503","BSTAR":"-0.00864560000000","MEAN_MOTION_DOT":"-0.00969410","OBJECT_NAME":"STARLINK-3060","EPHEMERIS_TYPE":"0","ECCENTRICITY":"0.00034860","DECAY_DATE":null,"TIME_SYSTEM":"UTC","NORAD_CAT_ID":"49155","MEAN_MOTION":"15.70575068","REF_FRAME":"TEME"},{"APOAPSIS":"358.736","PERIAPSIS":"354.099","CLASSIFICATION_TYPE":"U","SITE":"AFWTR","TLE_LINE1":"1 49156U 21082AC  21270.91668981 -.01099642  00000-0 -98190-2 0  9990","RA_OF_ASC_NODE":"88.0606","OBJECT_TYPE":"PAYLOAD","GP_ID":"185669174","MEAN_ANOMALY":"275.5840","REV_AT_EPOCH":"250","MEAN_MOTION_DDOT":"0.0000000000000","FILE":"3131463","CENTER_NAME":"EARTH","COUNTRY_CODE":"US","PERIOD":"91.669","OBJECT_ID":"2021-082AC","ELEMENT_SET_NO":"999","INCLINATION":"70.0001","RCS_SIZE":"LARGE","NORAD_CAT_ID":"49156","MEAN_MOTION":"15.70867826","REF_FRAME":"TEME","EPHEMERIS_TYPE":"0","TIME_SYSTEM":"UTC","DECAY_DATE":null,"ECCENTRICITY":"0.00034420","OBJECT_NAME":"STARLINK-3085","MEAN_MOTION_DOT":"-0.01099642","TLE_LINE2":"2 49156  70.0001  88.0606 0003442 279.2805 275.5840 15.70867826  2507","BSTAR":"-0.00981900000000","MEAN_ELEMENT_THEORY":"SGP4","EPOCH":"2021-09-27T22:00:01.999584","SEMIMAJOR_AXIS":"6734.553","LAUNCH_DATE":"2021-09-14","ARG_OF_PERICENTER":"279.2805"},{"BSTAR":"-0.00956540000000","TLE_LINE2":"2 49157  70.0001  88.0655 0003452 279.8961 270.8714 15.70757785  2502","MEAN_ELEMENT_THEORY":"SGP4","SEMIMAJOR_AXIS":"6734.867","EPOCH":"2021-09-27T22:00:01.999584","ARG_OF_PERICENTER":"279.8961","LAUNCH_DATE":"2021-09-14","NORAD_CAT_ID":"49157","MEAN_MOTION":"15.70757785","REF_FRAME":"TEME","OBJECT_NAME":"STARLINK-3051","EPHEMERIS_TYPE":"0","DECAY_DATE":null,"ECCENTRICITY":"0.00034520","TIME_SYSTEM":"UTC","MEAN_MOTION_DOT":"-0.01069645","MEAN_MOTION_DDOT":"0.0000000000000","REV_AT_EPOCH":"250","MEAN_ANOMALY":"270.8714","CENTER_NAME":"EARTH","FILE":"3131463","OBJECT_ID":"2021-082AD","ELEMENT_SET_NO":"999","PERIOD":"91.675","COUNTRY_CODE":"US","RCS_SIZE":"LARGE","INCLINATION":"70.0001","APOAPSIS":"359.057","CLASSIFICATION_TYPE":"U","PERIAPSIS":"354.407","RA_OF_ASC_NODE":"88.0655","TLE_LINE1":"1 49157U 21082AD  21270.91668981 -.01069645  00000-0 -95654-2 0  9993","OBJECT_TYPE":"PAYLOAD","SITE":"AFWTR","GP_ID":"185669282"},{"REF_FRAME":"TEME","NORAD_CAT_ID":"49158","MEAN_MOTION":"15.70965498","MEAN_MOTION_DOT":"-0.01108724","OBJECT_NAME":"STARLINK-3083","DECAY_DATE":null,"TIME_SYSTEM":"UTC","ECCENTRICITY":"0.00034270","EPHEMERIS_TYPE":"0","SEMIMAJOR_AXIS":"6734.273","EPOCH":"2021-09-27T22:00:01.999584","TLE_LINE2":"2 49158  70.0001  88.0558 0003427 277.3276 281.6274 15.70965498  2502","MEAN_ELEMENT_THEORY":"SGP4","BSTAR":"-0.00986890000000","ARG_OF_PERICENTER":"277.3276","LAUNCH_DATE":"2021-09-14","TLE_LINE1":"1 49158U 21082AE  21270.91668981 -.01108724  00000-0 -98689-2 0  9997","RA_OF_ASC_NODE":"88.0558","OBJECT_TYPE":"PAYLOAD","SITE":"AFWTR","PERIAPSIS":"353.831","CLASSIFICATION_TYPE":"U","APOAPSIS":"358.446","GP_ID":"185669929","CENTER_NAME":"EARTH","FILE":"3131463","MEAN_MOTION_DDOT":"0.0000000000000","MEAN_ANOMALY":"281.6274","REV_AT_EPOCH":"250","RCS_SIZE":"LARGE","INCLINATION":"70.0001","ELEMENT_SET_NO":"999","OBJECT_ID":"2021-082AE","COUNTRY_CODE":"US","PERIOD":"91.663"},{"LAUNCH_DATE":"2021-09-14","ARG_OF_PERICENTER":"280.3476","EPOCH":"2021-09-27T22:00:01.999584","SEMIMAJOR_AXIS":"6734.711","BSTAR":"-0.00972010000000","TLE_LINE2":"2 49159  70.0001  88.0630 0003454 280.3476 272.4724 15.70812356  2502","MEAN_ELEMENT_THEORY":"SGP4","MEAN_MOTION_DOT":"-0.01087424","EPHEMERIS_TYPE":"0","DECAY_DATE":null,"ECCENTRICITY":"0.00034540","TIME_SYSTEM":"UTC","OBJECT_NAME":"STARLINK-3056","NORAD_CAT_ID":"49159","MEAN_MOTION":"15.70812356","REF_FRAME":"TEME","INCLINATION":"70.0001","RCS_SIZE":"LARGE","COUNTRY_CODE":"US","PERIOD":"91.672","OBJECT_ID":"2021-082AF","ELEMENT_SET_NO":"999","FILE":"3131463","CENTER_NAME":"EARTH","REV_AT_EPOCH":"250","MEAN_ANOMALY":"272.4724","MEAN_MOTION_DDOT":"0.0000000000000","GP_ID":"185669386","SITE":"AFWTR","OBJECT_TYPE":"PAYLOAD","TLE_LINE1":"1 49159U 21082AF  21270.91668981 -.01087424  00000-0 -97201-2 0  9990","RA_OF_ASC_NODE":"88.0630","APOAPSIS":"358.902","PERIAPSIS":"354.250","CLASSIFICATION_TYPE":"U"},{"NORAD_CAT_ID":"49160","MEAN_MOTION":"15.71012232","REF_FRAME":"TEME","OBJECT_NAME":"STARLINK-3095","EPHEMERIS_TYPE":"0","DECAY_DATE":null,"ECCENTRICITY":"0.00034180","TIME_SYSTEM":"UTC","MEAN_MOTION_DOT":"-0.01109449","MEAN_ELEMENT_THEORY":"SGP4","TLE_LINE2":"2 49160  70.0001  88.0534 0003418 276.5160 284.4803 15.71012232  2501","BSTAR":"-0.00985670000000","SEMIMAJOR_AXIS":"6734.140","EPOCH":"2021-09-27T22:00:01.999584","ARG_OF_PERICENTER":"276.5160","LAUNCH_DATE":"2021-09-14","APOAPSIS":"358.307","PERIAPSIS":"353.703","CLASSIFICATION_TYPE":"U","OBJECT_TYPE":"PAYLOAD","TLE_LINE1":"1 49160U 21082AG  21270.91668981 -.01109449  00000-0 -98567-2 0  9990","RA_OF_ASC_NODE":"88.0534","SITE":"AFWTR","GP_ID":"185669498","MEAN_MOTION_DDOT":"0.0000000000000","REV_AT_EPOCH":"250","MEAN_ANOMALY":"284.4803","CENTER_NAME":"EARTH","FILE":"3131463","OBJECT_ID":"2021-082AG","ELEMENT_SET_NO":"999","COUNTRY_CODE":"US","PERIOD":"91.661","RCS_SIZE":"LARGE","INCLINATION":"70.0001"}];
